#aV2008  9 24  0  0   .00000000      96 DD+AD WGS84 FIT  NGA
## 1498 259200.00000000   900.00000000 54733  .0000000000000
+   31     2  3  4  5  6  7  8  9 10 11 12 13 14 15 16 17 18
+         19 20 21 22 23 24 25 26 27 28 29 30 31 32  0  0  0
+          0  0  0  0  0  0  0  0  0  0  0  0  0  0  0  0  0
+          0  0  0  0  0  0  0  0  0  0  0  0  0  0  0  0  0
+          0  0  0  0  0  0  0  0  0  0  0  0  0  0  0  0  0
++         0  0  0  0  0  0  0  0  0  0  0  0  0  0  0  0  0
++         0  0  0  0  0  0  0  0  0  0  0  0  0  0  0  0  0
++         0  0  0  0  0  0  0  0  0  0  0  0  0  0  0  0  0
++         0  0  0  0  0  0  0  0  0  0  0  0  0  0  0  0  0
++         0  0  0  0  0  0  0  0  0  0  0  0  0  0  0  0  0
%c cc cc ccc ccc cccc cccc cccc cccc ccccc ccccc ccccc ccccc
%c cc cc ccc ccc cccc cccc cccc cccc ccccc ccccc ccccc ccccc
%f  0.0000000  0.000000000  0.00000000000  0.000000000000000
%f  0.0000000  0.000000000  0.00000000000  0.000000000000000
%i    0    0    0    0      0      0      0      0         0
%i    0    0    0    0      0      0      0      0         0
/*      NGA, ST. LOUIS,MO.                                  
/*   EPHEMERIS COMPUTED FROM  3 DAYS OF DATA                
/* CCCCCCCCCCCCCCCCCCCCCCCCCCCCCCCCCCCCCCCCCCCCCCCCCCCCCCCCC
/* CCCCCCCCCCCCCCCCCCCCCCCCCCCCCCCCCCCCCCCCCCCCCCCCCCCCCCCCC
*  2008  9 24  7 30   .00000000                                                 
P  2  16608.194672   -742.518719 -20780.955127    185.099321                    
V  2  -8945.421348  24668.724959  -8453.223480      -.028202                    
P  3 -20984.444418  -5513.572791  15270.948496    287.637800                    
V  3 -11772.024266 -16187.105961 -21267.407251       .052289                    
P  4  10814.360496  12816.763623 -20625.957977   -180.417646                    
V  4 -11368.677102  23525.886518   9069.645840      -.111954                    
P  5  15136.059771 -15163.784324 -15907.279511   -134.012965                    
V  5  19795.057626  -2046.262423  21307.179575      -.968586                    
P  6 -20904.998499  -9945.342379  13210.146090    164.787101                    
V  6  -8355.136870 -14548.050675 -24524.428002      -.024199                    
P  7  -6238.285198  25107.504283   5751.252213     18.978727                    
V  7  -5354.964467   5727.808088 -30757.462128       .020291                    
P  8   2662.588649  20055.356173  16859.546400   -171.388867                    
V  8 -10982.498427  18788.379866 -20998.121896      -.015504                    
P  9  14181.095505 -20234.531313   8927.438741     16.485943                    
V  9  -2042.990568  12349.959669  29278.046170       .018873                    
P 10  26572.506359   -489.217450  -3086.827187     -5.220738                    
V 10  -3450.234729   2834.056286 -31241.636149      -.004483                    
P 11 -11691.322174  21907.185445   8776.274763     19.267475                    
V 11  -2420.053076 -12347.917105  27425.793899      -.007308                    
P 12  20850.241855 -10988.483214 -12082.126981   -349.621445                    
V 12  15652.729109    438.366802  26544.896555       .016704                    
P 13   2090.940152  21304.648881 -15839.105736    272.096961                    
V 13 -12125.280285 -15735.441822 -22929.976422       .011364                    
P 14 -15818.882348 -21395.355786   -836.996386   -215.912048                    
V 14    788.614450  -2017.726632  32274.674107       .047141                    
P 15  15771.101017  -3847.811315  21052.979298   -182.637323                    
V 15  15804.100964  21501.227495  -7902.543113      -.064784                    
P 16 -25048.848157  -3255.028124  -8490.796886    105.260693                    
V 16  10496.663664  -3408.480945 -29248.530311      -.021127                    
P 17  15847.148405  21432.356559    -80.246933     39.087208                    
V 17  -2083.219978   1723.205238  31624.196472       .001491                    
P 18     20.996660 -15674.281568  21630.702300   -130.588185                    
V 18  26982.099180  -2098.365572  -1930.033123       .040290                    
P 19 -15320.872891   4075.461002  21410.741024     35.556144                    
V 19 -14380.127832 -22847.609082  -5755.176431       .000943                    
P 20 -17549.736345  13391.202227 -14858.755226    103.776903                    
V 20 -18873.922703    321.165857  22788.922691      -.010565                    
P 21   1977.900404 -23939.118738  10836.346353     49.399145                    
V 21   8843.196522 -11071.097348 -27205.548680      -.014951                    
P 22 -14086.329424 -12552.393971  18881.213611    210.776169                    
V 22  23457.607332  -3547.513294  15210.983118      -.000124                    
P 23  -6847.902494  14761.914705 -20992.123152    374.312662                    
V 23 -16619.619136 -20727.461750  -9441.391532       .013768                    
P 24  13068.375367 -23154.366229  -2399.793058    127.760675                    
V 24   1173.092363   4138.888666 -31187.940481       .030335                    
P 25  -8820.723969  25099.136747  -1326.269349   -133.169543                    
V 25  -1762.056244  -2755.182452 -31704.855561       .421972                    
P 26  17451.195326   3065.890175  19468.007258    330.037768                    
V 26  13861.709367  21481.167896 -14911.276882       .053619                    
P 27  -2139.232536  25001.012589   9198.212036    219.932379                    
V 27  -5665.918848   9405.993412 -29149.360036       .028201                    
P 28  12723.002767  12726.949260  20034.860375    -22.736700                    
V 28 -24274.061819   3239.071335  13297.500845      -.003315                    
P 29    530.731355 -20002.979388 -17371.075332    -36.718855                    
V 29  14442.918448  17030.593949 -19016.358080       .010732                    
P 30   6375.886920 -15989.749447 -20563.815729     98.305575                    
V 30  25198.365984  -3155.936369  10539.748647       .020377                    
P 31 -12013.767745  -9494.841957 -21484.714431    -28.321352                    
V 31  11117.956796 -25436.096008   5079.484963      -.023362                    
P 32 -23561.517792   7271.208837  -9183.841861    316.498632                    
V 32 -12420.262900  -2132.503585  29017.062844       .001663                    
EOF
